GLOBALSTAR M023         
1 25621U 99004A   25302.88903958 -.00000121  00000+0 -93179-4 0  9998
2 25621  52.0134   3.2686 0010350  66.2715 104.9826 12.62507315232744
GLOBALSTAR M040         
1 25622U 99004B   25302.91649277 -.00000026  00000+0  43654-3 0  9999
2 25622  51.9944   7.5389 0000498 352.7427 177.9271 12.62021299232267
GLOBALSTAR M036         
1 25623U 99004C   25303.16660483 -.00000011  00000+0  10486-2 0  9990
2 25623  51.9964 244.5401 0010633 311.6234 152.4199 11.86613437195003
GLOBALSTAR M038         
1 25624U 99004D   25303.06363181 -.00000060  00000+0  28695-3 0  9991
2 25624  51.9993  43.1380 0001315 353.0852 177.7429 12.32534727219007
GLOBALSTAR M022         
1 25649U 99012A   25303.21944481 -.00000067  00000+0  23398-3 0  9994
2 25649  52.0042 283.8209 0002952  76.0620 296.8160 12.02505369192627
GLOBALSTAR M041         
1 25650U 99012B   25302.94655619 -.00000103  00000+0 -23118-3 0  9999
2 25650  51.9999 170.1224 0000702 187.3060 172.7767 11.96680226194410
GLOBALSTAR M046         
1 25651U 99012C   25303.04770984 -.00000148  00000+0 -65391-3 0  9993
2 25651  52.0052 229.4990 0001909 142.7917 230.4550 12.09415458199984
GLOBALSTAR M037         
1 25652U 99012D   25303.26967777 -.00000065  00000+0  21347-3 0  9996
2 25652  51.9978 132.6783 0002907 113.4240  58.4296 12.62453522228338
